STARLINK-2632
1 18448C 21040W   21326.17897705  .00003361  00000-0  22516-3 0  3269
2 18448  53.0570  22.9267 0001201  58.8838 332.1739 15.06401874    17
